{
  "type": "FeatureCollection",
  "features": [
    {
      "type": "Feature",
      "properties": {
        "norad_id": 43603,
        "name": "BEIDOU-3 M11 (C25)",
        "group": "beidou",
        "lat": 52.89862567008411,
        "lon": -65.06624023812424,
        "alt_km": 21515.46105348649,
        "timestamp": "2025-12-03T04:52:29.902385+00:00",
        "meta_object_name": "BEIDOU-3 M11 (C25)",
        "meta_object_id": "2018-067B",
        "meta_epoch": "2025-12-01T23:30:51.046272",
        "meta_mean_motion": 1.86227122,
        "meta_eccentricity": 0.0005564,
        "meta_inclination": 54.1806,
        "meta_ra_of_asc_node": 187.6926,
        "meta_arg_of_pericenter": 35.9792,
        "meta_mean_anomaly": 324.1527,
        "meta_ephemeris_type": 0,
        "meta_classification_type": "U",
        "meta_norad_cat_id": 43603,
        "meta_element_set_no": 999,
        "meta_rev_at_epoch": 4947,
        "meta_bstar": 0,
        "meta_mean_motion_dot": 1.23e-06,
        "meta_mean_motion_ddot": 0,
        "tle_line1": "1 43603U 18067B   25335.97975748  .00000123  00000+0  00000+0 0  9996",
        "tle_line2": "2 43603  54.1806 187.6926 0005564  35.9792 324.1527  1.86227122 49475"
      },
      "geometry": {
        "type": "Point",
        "coordinates": [
          -65.06624023812424,
          52.89862567008411
        ]
      }
    },
    {
      "type": "Feature",
      "properties": {
        "norad_id": 43622,
        "name": "BEIDOU-3 M13 (C32)",
        "group": "beidou",
        "lat": 40.156106596050414,
        "lon": -144.85205668662883,
        "alt_km": 21538.56137926403,
        "timestamp": "2025-12-03T04:52:29.902397+00:00",
        "meta_object_name": "BEIDOU-3 M13 (C32)",
        "meta_object_id": "2018-072A",
        "meta_epoch": "2025-12-01T22:28:14.583360",
        "meta_mean_motion": 1.8623073,
        "meta_eccentricity": 0.00055911,
        "meta_inclination": 56.4497,
        "meta_ra_of_asc_node": 69.1783,
        "meta_arg_of_pericenter": 298.7186,
        "meta_mean_anomaly": 61.2282,
        "meta_ephemeris_type": 0,
        "meta_classification_type": "U",
        "meta_norad_cat_id": 43622,
        "meta_element_set_no": 999,
        "meta_rev_at_epoch": 4898,
        "meta_bstar": 0,
        "meta_mean_motion_dot": -4.4e-07,
        "meta_mean_motion_ddot": 0,
        "tle_line1": "1 43622U 18072A   25335.93627990 -.00000044  00000+0  00000+0 0  9995",
        "tle_line2": "2 43622  56.4497  69.1783 0005591 298.7186  61.2282  1.86230730 48989"
      },
      "geometry": {
        "type": "Point",
        "coordinates": [
          -144.85205668662883,
          40.156106596050414
        ]
      }
    },
    {
      "type": "Feature",
      "properties": {
        "norad_id": 43623,
        "name": "BEIDOU-3 M14 (C33)",
        "group": "beidou",
        "lat": -32.05949755852955,
        "lon": -86.35391778329162,
        "alt_km": 21535.921484455983,
        "timestamp": "2025-12-03T04:52:29.902409+00:00",
        "meta_object_name": "BEIDOU-3 M14 (C33)",
        "meta_object_id": "2018-072B",
        "meta_epoch": "2025-12-01T19:14:30.937344",
        "meta_mean_motion": 1.86230707,
        "meta_eccentricity": 0.00030488,
        "meta_inclination": 56.4513,
        "meta_ra_of_asc_node": 69.1766,
        "meta_arg_of_pericenter": 335.7773,
        "meta_mean_anomaly": 24.2115,
        "meta_ephemeris_type": 0,
        "meta_classification_type": "U",
        "meta_norad_cat_id": 43623,
        "meta_element_set_no": 999,
        "meta_rev_at_epoch": 4897,
        "meta_bstar": 0,
        "meta_mean_motion_dot": -4.3e-07,
        "meta_mean_motion_ddot": 0,
        "tle_line1": "1 43623U 18072B   25335.80174696 -.00000043  00000+0  00000+0 0  9991",
        "tle_line2": "2 43623  56.4513  69.1766 0003048 335.7773  24.2115  1.86230707 48976"
      },
      "geometry": {
        "type": "Point",
        "coordinates": [
          -86.35391778329162,
          -32.05949755852955
        ]
      }
    },
    {
      "type": "Feature",
      "properties": {
        "norad_id": 43647,
        "name": "BEIDOU-3 M16 (C35)",
        "group": "beidou",
        "lat": 47.97209292348956,
        "lon": 73.8629911374167,
        "alt_km": 21524.015246908013,
        "timestamp": "2025-12-03T04:52:29.902420+00:00",
        "meta_object_name": "BEIDOU-3 M16 (C35)",
        "meta_object_id": "2018-078A",
        "meta_epoch": "2025-12-01T23:02:01.408992",
        "meta_mean_motion": 1.86232129,
        "meta_eccentricity": 0.00069466,
        "meta_inclination": 54.272,
        "meta_ra_of_asc_node": 306.8982,
        "meta_arg_of_pericenter": 18.3506,
        "meta_mean_anomaly": 341.6639,
        "meta_ephemeris_type": 0,
        "meta_classification_type": "U",
        "meta_norad_cat_id": 43647,
        "meta_element_set_no": 999,
        "meta_rev_at_epoch": 4848,
        "meta_bstar": 0,
        "meta_mean_motion_dot": -6.1e-07,
        "meta_mean_motion_ddot": 0,
        "tle_line1": "1 43647U 18078A   25335.95973853 -.00000061  00000+0  00000+0 0  9991",
        "tle_line2": "2 43647  54.2720 306.8982 0006946  18.3506 341.6639  1.86232129 48480"
      },
      "geometry": {
        "type": "Point",
        "coordinates": [
          73.8629911374167,
          47.97209292348956
        ]
      }
    },
    {
      "type": "Feature",
      "properties": {
        "norad_id": 43648,
        "name": "BEIDOU-3 M15 (C34)",
        "group": "beidou",
        "lat": 21.64552703017856,
        "lon": -36.571232287620354,
        "alt_km": 21515.556127107076,
        "timestamp": "2025-12-03T04:52:29.902432+00:00",
        "meta_object_name": "BEIDOU-3 M15 (C34)",
        "meta_object_id": "2018-078B",
        "meta_epoch": "2025-12-01T00:21:40.976640",
        "meta_mean_motion": 1.86232,
        "meta_eccentricity": 0.0003569,
        "meta_inclination": 54.2686,
        "meta_ra_of_asc_node": 306.9322,
        "meta_arg_of_pericenter": 17.0419,
        "meta_mean_anomaly": 342.9634,
        "meta_ephemeris_type": 0,
        "meta_classification_type": "U",
        "meta_norad_cat_id": 43648,
        "meta_element_set_no": 999,
        "meta_rev_at_epoch": 4848,
        "meta_bstar": 0,
        "meta_mean_motion_dot": -5.6e-07,
        "meta_mean_motion_ddot": 0,
        "tle_line1": "1 43648U 18078B   25335.01505760 -.00000056  00000+0  00000+0 0  9991",
        "tle_line2": "2 43648  54.2686 306.9322 0003569  17.0419 342.9634  1.86232000 48485"
      },
      "geometry": {
        "type": "Point",
        "coordinates": [
          -36.571232287620354,
          21.64552703017856
        ]
      }
    },
    {
      "type": "Feature",
      "properties": {
        "norad_id": 43683,
        "name": "BEIDOU-3 G1 (C59)",
        "group": "beidou",
        "lat": -0.11441953521757553,
        "lon": -74.54731426800497,
        "alt_km": 35789.89630247028,
        "timestamp": "2025-12-03T04:52:29.902444+00:00",
        "meta_object_name": "BEIDOU-3 G1 (C59)",
        "meta_object_id": "2018-085A",
        "meta_epoch": "2025-12-02T17:49:18.912864",
        "meta_mean_motion": 1.00273911,
        "meta_eccentricity": 0.0002093,
        "meta_inclination": 2.5804,
        "meta_ra_of_asc_node": 103.2711,
        "meta_arg_of_pericenter": 62.4248,
        "meta_mean_anomaly": 313.5068,
        "meta_ephemeris_type": 0,
        "meta_classification_type": "U",
        "meta_norad_cat_id": 43683,
        "meta_element_set_no": 999,
        "meta_rev_at_epoch": 2609,
        "meta_bstar": 0,
        "meta_mean_motion_dot": -2.57e-06,
        "meta_mean_motion_ddot": 0,
        "tle_line1": "1 43683U 18085A   25336.74258001 -.00000257  00000+0  00000+0 0  9995",
        "tle_line2": "2 43683   2.5804 103.2711 0002093  62.4248 313.5068  1.00273911 26097"
      },
      "geometry": {
        "type": "Point",
        "coordinates": [
          -74.54731426800497,
          -0.11441953521757553
        ]
      }
    },
    {
      "type": "Feature",
      "properties": {
        "norad_id": 43706,
        "name": "BEIDOU-3 M17 (C36)",
        "group": "beidou",
        "lat": -52.7986987265314,
        "lon": 116.83985762287945,
        "alt_km": 21518.000044981854,
        "timestamp": "2025-12-03T04:52:29.902456+00:00",
        "meta_object_name": "BEIDOU-3 M17 (C36)",
        "meta_object_id": "2018-093A",
        "meta_epoch": "2025-11-30T05:23:59.265600",
        "meta_mean_motion": 1.86228182,
        "meta_eccentricity": 0.00063751,
        "meta_inclination": 54.1727,
        "meta_ra_of_asc_node": 189.0472,
        "meta_arg_of_pericenter": 306.0351,
        "meta_mean_anomaly": 138.1008,
        "meta_ephemeris_type": 0,
        "meta_classification_type": "U",
        "meta_norad_cat_id": 43706,
        "meta_element_set_no": 999,
        "meta_rev_at_epoch": 4783,
        "meta_bstar": 0,
        "meta_mean_motion_dot": 1.11e-06,
        "meta_mean_motion_ddot": 0,
        "tle_line1": "1 43706U 18093A   25334.22499150  .00000111  00000+0  00000+0 0  9991",
        "tle_line2": "2 43706  54.1727 189.0472 0006375 306.0351 138.1008  1.86228182 47839"
      },
      "geometry": {
        "type": "Point",
        "coordinates": [
          116.83985762287945,
          -52.7986987265314
        ]
      }
    }
  ]
}